CUBESAT XI-V            
1 28895U 05043F   26087.67640956  .00002007  00000+0  32469-3 0  9995
2 28895  98.2868 241.6643 0015362 101.1756 259.1179 14.72395539 89907
